{"type": "FeatureCollection", "features": [ {"type": "Feature", "properties": {"norad_id": 43622, "name": "BEIDOU-3 M13 (C32)", "group": "beidou", "lat": 31.51471034813345, "lon": -135.49692354426227, "alt_km": 21540.580808264418, "timestamp": "2025-12-24T03:53:29.912648+00:00", "meta": {"OBJECT_NAME": "BEIDOU-3 M13 (C32)", "OBJECT_ID": "2018-072A", "EPOCH": "2025-12-22T08:10:31.412640", "MEAN_MOTION": 1.86231166, "ECCENTRICITY": 0.00064111, "INCLINATION": 56.4667, "RA_OF_ASC_NODE": 68.5024, "ARG_OF_PERICENTER": 297.4685, "MEAN_ANOMALY": 62.5173, "EPHEMERIS_TYPE": 0, "CLASSIFICATION_TYPE": "U", "NORAD_CAT_ID": 43622, "ELEMENT_SET_NO": 999, "REV_AT_EPOCH": 4936, "BSTAR": 0, "MEAN_MOTION_DOT": -2.9e-07, "MEAN_MOTION_DDOT": 0}, "tle": {"line1": "1 43622U 18072A   25356.34064135 -.00000029  00000+0  00000+0 0  9992", "line2": "2 43622  56.4667  68.5024 0006411 297.4685  62.5173  1.86231166 49361"}}, "geometry": {"type": "Point", "coordinates": [-135.49692354426227, 31.51471034813345]}}, {"type": "Feature", "properties": {"norad_id": 43623, "name": "BEIDOU-3 M14 (C33)", "group": "beidou", "lat": -40.662516242402525, "lon": -76.87655282826435, "alt_km": 21533.89244215758, "timestamp": "2025-12-24T03:53:29.912659+00:00", "meta": {"OBJECT_NAME": "BEIDOU-3 M14 (C33)", "OBJECT_ID": "2018-072B", "EPOCH": "2025-12-23T06:43:13.861056", "MEAN_MOTION": 1.86231163, "ECCENTRICITY": 0.00035931, "INCLINATION": 56.4696, "RA_OF_ASC_NODE": 68.4654, "ARG_OF_PERICENTER": 327.0772, "MEAN_ANOMALY": 32.9541, "EPHEMERIS_TYPE": 0, "CLASSIFICATION_TYPE": "U", "NORAD_CAT_ID": 43623, "ELEMENT_SET_NO": 999, "REV_AT_EPOCH": 4937, "BSTAR": 0, "MEAN_MOTION_DOT": -2.6e-07, "MEAN_MOTION_DDOT": 0}, "tle": {"line1": "1 43623U 18072B   25357.28002154 -.00000026  00000+0  00000+0 0  9997", "line2": "2 43623  56.4696  68.4654 0003593 327.0772  32.9541  1.86231163 49375"}}, "geometry": {"type": "Point", "coordinates": [-76.87655282826435, -40.662516242402525]}}, {"type": "Feature", "properties": {"norad_id": 43647, "name": "BEIDOU-3 M16 (C35)", "group": "beidou", "lat": 41.1347151460713, "lon": 87.16813586423173, "alt_km": 21528.463083030616, "timestamp": "2025-12-24T03:53:29.912671+00:00", "meta": {"OBJECT_NAME": "BEIDOU-3 M16 (C35)", "OBJECT_ID": "2018-078A", "EPOCH": "2025-12-22T21:37:04.499328", "MEAN_MOTION": 1.86232328, "ECCENTRICITY": 0.00074196, "INCLINATION": 54.2525, "RA_OF_ASC_NODE": 306.1662, "ARG_OF_PERICENTER": 20.3198, "MEAN_ANOMALY": 339.7131, "EPHEMERIS_TYPE": 0, "CLASSIFICATION_TYPE": "U", "NORAD_CAT_ID": 43647, "ELEMENT_SET_NO": 999, "REV_AT_EPOCH": 4887, "BSTAR": 0, "MEAN_MOTION_DOT": -5.5e-07, "MEAN_MOTION_DDOT": 0}, "tle": {"line1": "1 43647U 18078A   25356.90074652 -.00000055  00000+0  00000+0 0  9991", "line2": "2 43647  54.2525 306.1662 0007419  20.3198 339.7131  1.86232328 48876"}}, "geometry": {"type": "Point", "coordinates": [87.16813586423173, 41.1347151460713]}}, {"type": "Feature", "properties": {"norad_id": 43648, "name": "BEIDOU-3 M15 (C34)", "group": "beidou", "lat": 30.800023793104625, "lon": -28.492204589669782, "alt_km": 21513.46718415142, "timestamp": "2025-12-24T03:53:29.912682+00:00", "meta": {"OBJECT_NAME": "BEIDOU-3 M15 (C34)", "OBJECT_ID": "2018-078B", "EPOCH": "2025-12-23T00:43:09.285312", "MEAN_MOTION": 1.86232355, "ECCENTRICITY": 0.00040598, "INCLINATION": 54.2483, "RA_OF_ASC_NODE": 306.1625, "ARG_OF_PERICENTER": 19.7636, "MEAN_ANOMALY": 340.2561, "EPHEMERIS_TYPE": 0, "CLASSIFICATION_TYPE": "U", "NORAD_CAT_ID": 43648, "ELEMENT_SET_NO": 999, "REV_AT_EPOCH": 4889, "BSTAR": 0, "MEAN_MOTION_DOT": -5.4e-07, "MEAN_MOTION_DDOT": 0}, "tle": {"line1": "1 43648U 18078B   25357.02996858 -.00000054  00000+0  00000+0 0  9996", "line2": "2 43648  54.2483 306.1625 0004059  19.7636 340.2561  1.86232355 48891"}}, "geometry": {"type": "Point", "coordinates": [-28.492204589669782, 30.800023793104625]}}, {"type": "Feature", "properties": {"norad_id": 43683, "name": "BEIDOU-3 G1 (C59)", "group": "beidou", "lat": -0.41974347612317736, "lon": -68.71747173560684, "alt_km": 35792.51817250823, "timestamp": "2025-12-24T03:53:29.912694+00:00", "meta": {"OBJECT_NAME": "BEIDOU-3 G1 (C59)", "OBJECT_ID": "2018-085A", "EPOCH": "2025-12-23T20:38:46.260960", "MEAN_MOTION": 1.00267114, "ECCENTRICITY": 0.000147, "INCLINATION": 2.634, "RA_OF_ASC_NODE": 102.639, "ARG_OF_PERICENTER": 44.5034, "MEAN_ANOMALY": 35.1675, "EPHEMERIS_TYPE": 0, "CLASSIFICATION_TYPE": "U", "NORAD_CAT_ID": 43683, "ELEMENT_SET_NO": 999, "REV_AT_EPOCH": 2630, "BSTAR": 0, "MEAN_MOTION_DOT": -2.59e-06, "MEAN_MOTION_DDOT": 0}, "tle": {"line1": "1 43683U 18085A   25357.86025765 -.00000259  00000+0  00000+0 0  9992", "line2": "2 43683   2.6340 102.6390 0001470  44.5034  35.1675  1.00267114 26304"}}, "geometry": {"type": "Point", "coordinates": [-68.71747173560684, -0.41974347612317736]}}, {"type": "Feature", "properties": {"norad_id": 43706, "name": "BEIDOU-3 M17 (C36)", "group": "beidou", "lat": -48.4166373957694, "lon": 133.6927160968125, "alt_km": 21517.413338991348, "timestamp": "2025-12-24T03:53:29.912705+00:00", "meta": {"OBJECT_NAME": "BEIDOU-3 M17 (C36)", "OBJECT_ID": "2018-093A", "EPOCH": "2025-12-22T11:03:17.644896", "MEAN_MOTION": 1.86228432, "ECCENTRICITY": 0.00060427, "INCLINATION": 54.173, "RA_OF_ASC_NODE": 188.2918, "ARG_OF_PERICENTER": 307.405, "MEAN_ANOMALY": 284.4943, "EPHEMERIS_TYPE": 0, "CLASSIFICATION_TYPE": "U", "NORAD_CAT_ID": 43706, "ELEMENT_SET_NO": 999, "REV_AT_EPOCH": 4824, "BSTAR": 0, "MEAN_MOTION_DOT": 9.4e-07, "MEAN_MOTION_DDOT": 0}, "tle": {"line1": "1 43706U 18093A   25356.46062089  .00000094  00000+0  00000+0 0  9998", "line2": "2 43706  54.1730 188.2918 0006042 307.4050 284.4943  1.86228432 48248"}}, "geometry": {"type": "Point", "coordinates": [133.6927160968125, -48.4166373957694]}}, {"type": "Feature", "properties": {"norad_id": 43707, "name": "BEIDOU-3 M18 (C37)", "group": "beidou", "lat": 20.424272616699913, "lon": -156.15785559423676, "alt_km": 21511.260849723814, "timestamp": "2025-12-24T03:53:29.912717+00:00", "meta": {"OBJECT_NAME": "BEIDOU-3 M18 (C37)", "OBJECT_ID": "2018-093B", "EPOCH": "2025-12-20T21:39:28.587744", "MEAN_MOTION": 1.86226757, "ECCENTRICITY": 0.00062168, "INCLINATION": 54.1741, "RA_OF_ASC_NODE": 188.3365, "ARG_OF_PERICENTER": 353.7926, "MEAN_ANOMALY": 6.2524, "EPHEMERIS_TYPE": 0, "CLASSIFICATION_TYPE": "U", "NORAD_CAT_ID": 43707, "ELEMENT_SET_NO": 999, "REV_AT_EPOCH": 4821, "BSTAR": 0, "MEAN_MOTION_DOT": 9.5e-07, "MEAN_MOTION_DDOT": 0}, "tle": {"line1": "1 43707U 18093B   25354.90241421  .00000095  00000+0  00000+0 0  9996", "line2": "2 43707  54.1741 188.3365 0006216 353.7926   6.2524  1.86226757 48217"}}, "geometry": {"type": "Point", "coordinates": [-156.15785559423676, 20.424272616699913]}}, {"type": "Feature", "properties": {"norad_id": 44231, "name": "BEIDOU-2 G8 (C01)", "group": "beidou", "lat": -1.1304735091790121, "lon": -64.25736580197918, "alt_km": 35757.754805028206, "timestamp": "2025-12-24T03:53:29.912728+00:00", "meta": {"OBJECT_NAME": "BEIDOU-2 G8 (C01)", "OBJECT_ID": "2019-027A", "EPOCH": "2025-12-23T20:40:01.141248", "MEAN_MOTION": 1.0027506, "ECCENTRICITY": 0.0008301, "INCLINATION": 1.6883, "RA_OF_ASC_NODE": 74.7343, "ARG_OF_PERICENTER": 259.1032, "MEAN_ANOMALY": 213.3102, "EPHEMERIS_TYPE": 0, "CLASSIFICATION_TYPE": "U", "NORAD_CAT_ID": 44231, "ELEMENT_SET_NO": 999, "REV_AT_EPOCH": 2432, "BSTAR": 0, "MEAN_MOTION_DOT": -2.26e-06, "MEAN_MOTION_DDOT": 0}, "tle": {"line1": "1 44231U 19027A   25357.86112432 -.00000226  00000+0  00000+0 0  9991", "line2": "2 44231   1.6883  74.7343 0008301 259.1032 213.3102  1.00275060 24328"}}, "geometry": {"type": "Point", "coordinates": [-64.25736580197918, -1.1304735091790121]}}, {"type": "Feature", "properties": {"norad_id": 44337, "name": "BEIDOU-3 IGSO-2 (C39)", "group": "beidou", "lat": 50.5351528493939, "lon": -77.23851841794296, "alt_km": 35788.05553438763, "timestamp": "2025-12-24T03:53:29.912741+00:00", "meta": {"OBJECT_NAME": "BEIDOU-3 IGSO-2 (C39)", "OBJECT_ID": "2019-035A", "EPOCH": "2025-12-23T20:34:24.431808", "MEAN_MOTION": 1.00267916, "ECCENTRICITY": 0.0037802, "INCLINATION": 55.2291, "RA_OF_ASC_NODE": 160.4037, "ARG_OF_PERICENTER": 202.4581, "MEAN_ANOMALY": 157.7229, "EPHEMERIS_TYPE": 0, "CLASSIFICATION_TYPE": "U", "NORAD_CAT_ID": 44337, "ELEMENT_SET_NO": 999, "REV_AT_EPOCH": 2391, "BSTAR": 0, "MEAN_MOTION_DOT": -7.4e-07, "MEAN_MOTION_DDOT": 0}, "tle": {"line1": "1 44337U 19035A   25357.85722722 -.00000074  00000+0  00000+0 0  9996", "line2": "2 44337  55.2291 160.4037 0037802 202.4581 157.7229  1.00267916 23910"}}, "geometry": {"type": "Point", "coordinates": [-77.23851841794296, 50.5351528493939]}}, {"type": "Feature", "properties": {"norad_id": 44542, "name": "BEIDOU-3 M24 (C46)", "group": "beidou", "lat": -17.80116682489937, "lon": 175.3286024159706, "alt_km": 21512.811738887973, "timestamp": "2025-12-24T03:53:29.912752+00:00", "meta": {"OBJECT_NAME": "BEIDOU-3 M24 (C46)", "OBJECT_ID": "2019-061A", "EPOCH": "2025-12-23T15:47:40.430112", "MEAN_MOTION": 1.86229437, "ECCENTRICITY": 0.0009591, "INCLINATION": 54.4006, "RA_OF_ASC_NODE": 188.6475, "ARG_OF_PERICENTER": 26.0313, "MEAN_ANOMALY": 334.0556, "EPHEMERIS_TYPE": 0, "CLASSIFICATION_TYPE": "U", "NORAD_CAT_ID": 44542, "ELEMENT_SET_NO": 999, "REV_AT_EPOCH": 4252, "BSTAR": 0, "MEAN_MOTION_DOT": 9.9e-07, "MEAN_MOTION_DDOT": 0}, "tle": {"line1": "1 44542U 19061A   25357.65810683  .00000099  00000+0  00000+0 0  9991", "line2": "2 44542  54.4006 188.6475 0009591  26.0313 334.0556  1.86229437 42529"}}, "geometry": {"type": "Point", "coordinates": [175.3286024159706, -17.80116682489937]}}]}